$$SOE
2459580.500000000, A.D. 2022-Jan-01 00:00:00.0000, 1.298205318492320E+07, 3.785700768552289E+08, 1.648247791494876E+08,
2459587.500000000, A.D. 2022-Jan-08 00:00:00.0000, 3.653792012797686E+06, 3.796948703254537E+08, 1.700248624762926E+08,
2459594.500000000, A.D. 2022-Jan-15 00:00:00.0000, -5.676996053659919E+06, 3.805636865695176E+08, 1.751103323712915E+08,
2459601.500000000, A.D. 2022-Jan-22 00:00:00.0000, -1.500409564022507E+07, 3.811812576538671E+08, 1.800802069435198E+08,
2459608.500000000, A.D. 2022-Jan-29 00:00:00.0000, -2.432154635147920E+07, 3.815523107750397E+08, 1.849336296484117E+08,
2459615.500000000, A.D. 2022-Feb-05 00:00:00.0000, -3.362363478743283E+07, 3.816815601033548E+08, 1.896698609140102E+08,
2459622.500000000, A.D. 2022-Feb-12 00:00:00.0000, -4.290488458428474E+07, 3.815736984405758E+08, 1.942882699806048E+08,
2459629.500000000, A.D. 2022-Feb-19 00:00:00.0000, -5.216004583115517E+07, 3.812333909869139E+08, 1.987883272512158E+08,
2459636.500000000, A.D. 2022-Feb-26 00:00:00.0000, -6.138408519465440E+07, 3.806652704228866E+08, 2.031695971925720E+08,
2459643.500000000, A.D. 2022-Mar-05 00:00:00.0000, -7.057217660933343E+07, 3.798739326220044E+08, 2.074317316989622E+08,
2459650.500000000, A.D. 2022-Mar-12 00:00:00.0000, -7.971969232568170E+07, 3.788639328670928E+08, 2.115744638711961E+08,
2459657.500000000, A.D. 2022-Mar-19 00:00:00.0000, -8.882219425420824E+07, 3.776397825419424E+08, 2.155976021849114E+08,
2459664.500000000, A.D. 2022-Mar-26 00:00:00.0000, -9.787542558939946E+07, 3.762059462405906E+08, 2.195010250246490E+08,
2459671.500000000, A.D. 2022-Apr-02 00:00:00.0000, -1.068753026490765E+08, 3.745668391908602E+08, 2.232846755524243E+08,
2459678.500000000, A.D. 2022-Apr-09 00:00:00.0000, -1.158179066580880E+08, 3.727268249533413E+08, 2.269485568663918E+08,
2459685.500000000, A.D. 2022-Apr-16 00:00:00.0000, -1.246994751184352E+08, 3.706902140100595E+08, 2.304927274514516E+08,
2459692.500000000, A.D. 2022-Apr-23 00:00:00.0000, -1.335163940320845E+08, 3.684612642913772E+08, 2.339172971094742E+08,
2459699.500000000, A.D. 2022-Apr-30 00:00:00.0000, -1.422651928410096E+08, 3.660441813630756E+08, 2.372224233398757E+08,
2459706.500000000, A.D. 2022-May-07 00:00:00.0000, -1.509425390156621E+08, 3.634431162679003E+08, 2.404083077095629E+08,
2459713.500000000, A.D. 2022-May-14 00:00:00.0000, -1.595452308980923E+08, 3.606621640313742E+08, 2.434751923173614E+08,
2459720.500000000, A.D. 2022-May-21 00:00:00.0000, -1.680701908240857E+08, 3.577053635666698E+08, 2.464233565878446E+08,
2459727.500000000, A.D. 2022-May-28 00:00:00.0000, -1.765144589946933E+08, 3.545766979971507E+08, 2.492531143459134E+08,
2459734.500000000, A.D. 2022-Jun-04 00:00:00.0000, -1.848751878118071E+08, 3.512800950626062E+08, 2.519648111072152E+08,
2459741.500000000, A.D. 2022-Jun-11 00:00:00.0000, -1.931496365248954E+08, 3.478194275923300E+08, 2.545588215584271E+08,
2459748.500000000, A.D. 2022-Jun-18 00:00:00.0000, -2.013351661418213E+08, 3.441985140412602E+08, 2.570355472129566E+08,
2459755.500000000, A.D. 2022-Jun-25 00:00:00.0000, -2.094292345657822E+08, 3.404211190406682E+08, 2.593954142254013E+08,
2459762.500000000, A.D. 2022-Jul-02 00:00:00.0000, -2.174293918157765E+08, 3.364909538837886E+08, 2.616388713365139E+08,
2459769.500000000, A.D. 2022-Jul-09 00:00:00.0000, -2.253332749318991E+08, 3.324116771107659E+08, 2.637663879173952E+08,
2459776.500000000, A.D. 2022-Jul-16 00:00:00.0000, -2.331386026126364E+08, 3.281868962643707E+08, 2.657784521974739E+08,
2459783.500000000, A.D. 2022-Jul-23 00:00:00.0000, -2.408431717746738E+08, 3.238201708845794E+08, 2.676755698766526E+08,
2459790.500000000, A.D. 2022-Jul-30 00:00:00.0000, -2.484448559420717E+08, 3.193150133795934E+08, 2.694582628319318E+08,
2459797.500000000, A.D. 2022-Aug-06 00:00:00.0000, -2.559416018574916E+08, 3.146748884122170E+08, 2.711270676323947E+08,
2459804.500000000, A.D. 2022-Aug-13 00:00:00.0000, -2.633314251321018E+08, 3.099032135480262E+08, 2.726825341564827E+08,
2459811.500000000, A.D. 2022-Aug-20 00:00:00.0000, -2.706124064963229E+08, 3.050033606561955E+08, 2.741252244091377E+08,
2459818.500000000, A.D. 2022-Aug-27 00:00:00.0000, -2.777826885753271E+08, 2.999786573311551E+08, 2.754557114671406E+08,
2459825.500000000, A.D. 2022-Sep-03 00:00:00.0000, -2.848404729337812E+08, 2.948323882193573E+08, 2.766745785145074E+08,
2459832.500000000, A.D. 2022-Sep-10 00:00:00.0000, -2.917840172926938E+08, 2.895677962702224E+08, 2.777824179554455E+08,
2459839.500000000, A.D. 2022-Sep-17 00:00:00.0000, -2.986116328824674E+08, 2.841880839049844E+08, 2.787798305961585E+08,
2459846.500000000, A.D. 2022-Sep-24 00:00:00.0000, -3.053216818658197E+08, 2.786964140483227E+08, 2.796674248804761E+08,
2459853.500000000, A.D. 2022-Oct-01 00:00:00.0000, -3.119125745851723E+08, 2.730959109966875E+08, 2.804458161508875E+08,
2459860.500000000, A.D. 2022-Oct-08 00:00:00.0000, -3.183827662221017E+08, 2.673896616421606E+08, 2.811156259364151E+08,
2459867.500000000, A.D. 2022-Oct-15 00:00:00.0000, -3.247307537959538E+08, 2.615807182485279E+08, 2.816774814477299E+08,
2459874.500000000, A.D. 2022-Oct-22 00:00:00.0000, -3.309550756784713E+08, 2.556721010943932E+08, 2.821320153396968E+08,
2459881.500000000, A.D. 2022-Oct-29 00:00:00.0000, -3.370543111207530E+08, 2.496667983891562E+08, 2.824798652969081E+08,
2459888.500000000, A.D. 2022-Nov-05 00:00:00.0000, -3.430270776877078E+08, 2.435677662010792E+08, 2.827216734690181E+08,
2459895.500000000, A.D. 2022-Nov-12 00:00:00.0000, -3.488720285609351E+08, 2.373779296628171E+08, 2.828580860365821E+08,
2459902.500000000, A.D. 2022-Nov-19 00:00:00.0000, -3.545878504255004E+08, 2.311001844996297E+08, 2.828897528932323E+08,
2459909.500000000, A.D. 2022-Nov-26 00:00:00.0000, -3.601732616741362E+08, 2.247373984824221E+08, 2.828173273850630E+08,
2459916.500000000, A.D. 2022-Dec-03 00:00:00.0000, -3.656270107588449E+08, 2.182924127933825E+08, 2.826414660884283E+08,
2459923.500000000, A.D. 2022-Dec-10 00:00:00.0000, -3.709478746407300E+08, 2.117680433222623E+08, 2.823628286211970E+08,
2459930.500000000, A.D. 2022-Dec-17 00:00:00.0000, -3.761346573099471E+08, 2.051670818678359E+08, 2.819820774811684E+08,
2459937.500000000, A.D. 2022-Dec-24 00:00:00.0000, -3.811861882631748E+08, 1.984922971784073E+08, 2.814998778944789E+08,
2459944.500000000, A.D. 2022-Dec-31 00:00:00.0000, -3.861013205779012E+08, 1.917464359386881E+08, 2.809168976483546E+08,
2459951.500000000, A.D. 2023-Jan-07 00:00:00.0000, -3.908789284579673E+08, 1.849322246652265E+08, 2.802338069741125E+08,
2459958.500000000, A.D. 2023-Jan-14 00:00:00.0000, -3.955179062151065E+08, 1.780523730070588E+08, 2.794512787005125E+08,
2459965.500000000, A.D. 2023-Jan-21 00:00:00.0000, -4.000171693291650E+08, 1.711095752796303E+08, 2.785699884770849E+08,
2459972.500000000, A.D. 2023-Jan-28 00:00:00.0000, -4.043756539160132E+08, 1.641065100375433E+08, 2.775906147137759E+08,
2459979.500000000, A.D. 2023-Feb-04 00:00:00.0000, -4.085923148088766E+08, 1.570458407137620E+08, 2.765138385015307E+08,
2459986.500000000, A.D. 2023-Feb-11 00:00:00.0000, -4.126661240467087E+08, 1.499302171315821E+08, 2.753403436620446E+08,
2459993.500000000, A.D. 2023-Feb-18 00:00:00.0000, -4.165960698312882E+08, 1.427622770670514E+08, 2.740708168651443E+08,
2460000.500000000, A.D. 2023-Feb-25 00:00:00.0000, -4.203811556883139E+08, 1.355446477011407E+08, 2.727059477760121E+08,
2460007.500000000, A.D. 2023-Mar-04 00:00:00.0000, -4.240203997283692E+08, 1.282799469813806E+08, 2.712464292237848E+08,
2460014.500000000, A.D. 2023-Mar-11 00:00:00.0000, -4.275128339773901E+08, 1.209707848942558E+08, 2.696929573884394E+08,
2460021.500000000, A.D. 2023-Mar-18 00:00:00.0000, -4.308575037280195E+08, 1.136197645996330E+08, 2.680462319973020E+08,
2460028.500000000, A.D. 2023-Mar-25 00:00:00.0000, -4.340534667071444E+08, 1.062294833807824E+08, 2.663069565085756E+08,
2460035.500000000, A.D. 2023-Apr-01 00:00:00.0000, -4.370997916338218E+08, 9.880253380414744E+07, 2.644758382751223E+08,
2460042.500000000, A.D. 2023-Apr-08 00:00:00.0000, -4.399955567819591E+08, 9.134150631446506E+07, 2.625535888452585E+08,
2460049.500000000, A.D. 2023-Apr-15 00:00:00.0000, -4.427398508844135E+08, 8.384899215975946E+07, 2.605409245253833E+08,
2460056.500000000, A.D. 2023-Apr-22 00:00:00.0000, -4.453317745692070E+08, 7.632758359589894E+07, 2.584385667903300E+08,
2460063.500000000, A.D. 2023-Apr-29 00:00:00.0000, -4.477704395916478E+08, 6.877987362565130E+07, 2.562472424746545E+08,
2460070.500000000, A.D. 2023-May-06 00:00:00.0000, -4.500549676213374E+08, 6.120845705444315E+07, 2.539676840511249E+08,
2460077.500000000, A.D. 2023-May-13 00:00:00.0000, -4.521844895604820E+08, 5.361593197012924E+07, 2.516006300129026E+08,
2460084.500000000, A.D. 2023-May-20 00:00:00.0000, -4.541581451590897E+08, 4.600490115692282E+07, 2.491468252977985E+08,
2460091.500000000, A.D. 2023-May-27 00:00:00.0000, -4.559750827331122E+08, 3.837797341508460E+07, 2.466070217341205E+08,
2460098.500000000, A.D. 2023-Jun-03 00:00:00.0000, -4.576344589276924E+08, 3.073776481292112E+07, 2.439819785047722E+08,
2460105.500000000, A.D. 2023-Jun-10 00:00:00.0000, -4.591354385019541E+08, 2.308689985776772E+07, 2.412724626266584E+08,
2460112.500000000, A.D. 2023-Jun-17 00:00:00.0000, -4.604771940469378E+08, 1.542801252658965E+07, 2.384792494331755E+08,
2460119.500000000, A.D. 2023-Jun-24 00:00:00.0000, -4.616589053174851E+08, 7.763747213004664E+06, 2.356031230359737E+08,
2460126.500000000, A.D. 2023-Jul-01 00:00:00.0000, -4.626797579256199E+08, 9.676042026206851E+04, 2.326448768112330E+08,
2460133.500000000, A.D. 2023-Jul-08 00:00:00.0000, -4.635389430701131E+08, -7.570275976552159E+06, 2.296053141318128E+08,
2460140.500000000, A.D. 2023-Jul-15 00:00:00.0000, -4.642356595803517E+08, -1.523467272784853E+07, 2.264852492322835E+08,
2460147.500000000, A.D. 2023-Jul-22 00:00:00.0000, -4.647691147546493E+08, -2.289372349902757E+07, 2.232855078006269E+08,
$$EOE